     2.100          NAVIGATION                              RINEX VERSION / TYPE
fic2rin                                 05/25/2009 01:44:25 PGM / RUN BY / DATE
                                                            END OF HEADER
32 09  5 24 10  0  0.0  .257190316916D-03 -.522959453519D-11  .000000000000D+00
     .380000000000D+02  .172656250000D+03  .426946355458D-08 -.185350725420D+01
     .897236168385D-05  .133174810326D-01  .400282442570D-05  .515357511902D+04
     .360000000000D+05 -.106170773506D-06  .737653494137D+00  .294297933578D-06
     .964235556647D+00  .306718750000D+03 -.116571696877D+01 -.812783855710D-08
     .150720563831D-09  .100000000000D+01  .153300000000D+04  .000000000000D+00
     .240000000000D+01  .000000000000D+00 -.325962901115D-08  .380000000000D+02
     .288060000000D+05  .400000000000D+01
 6 09  5 24  9 59 44.0  .135080888867D-03  .146656020661D-10  .000000000000D+00
     .400000000000D+01 -.157500000000D+02  .576916888047D-08  .120981549319D+01
    -.914558768272D-06  .599899340887D-02  .486709177494D-05  .515369012260D+04
     .359840000000D+05 -.279396772385D-07 -.148764485607D+01 -.145286321640D-06
     .933263636691D+00  .272125000000D+03 -.136533360068D+01 -.853571268955D-08
    -.982183769039D-10  .100000000000D+01  .153300000000D+04  .000000000000D+00
     .240000000000D+01  .000000000000D+00 -.465661287308D-08  .400000000000D+01
     .320460000000D+05  .400000000000D+01
15 09  5 24  9 59 44.0 -.294657889754D-03 -.363797880709D-11  .000000000000D+00
     .160000000000D+02 -.302500000000D+02  .478162774542D-08 -.259002215773D+00
    -.163726508617D-05  .143204687629D-02 -.972300767899D-06  .515361649513D+04
     .359840000000D+05  .782310962677D-07  .168574744676D+01 -.521540641785D-07
     .956156454040D+00  .398406250000D+03 -.477509328900D+00 -.856464246602D-08
    -.238938524177D-09  .100000000000D+01  .153300000000D+04  .000000000000D+00
     .240000000000D+01  .000000000000D+00 -.977888703346D-08  .160000000000D+02
     .354660000000D+05  .400000000000D+01
 6 09  5 24 11 59 44.0  .135186593980D-03  .146656020661D-10  .000000000000D+00
     .150000000000D+02 -.912500000000D+01  .568202239333D-08  .225975887335D+01
    -.564381480217D-06  .599878013600D-02  .442564487457D-05  .515369282341D+04
     .431840000000D+05  .763684511185D-07 -.148770573394D+01 -.894069671631D-07
     .933263266573D+00  .279750000000D+03 -.136509841611D+01 -.844285167866D-08
    -.109647424398D-09  .100000000000D+01  .153300000000D+04  .000000000000D+00
     .240000000000D+01  .000000000000D+00 -.465661287308D-08  .150000000000D+02
     .360060000000D+05  .400000000000D+01
15 09  5 24 11 59 44.0 -.294683966786D-03 -.363797880709D-11  .000000000000D+00
     .170000000000D+02 -.290000000000D+02  .491949063082D-08  .790798010540D+00
    -.170059502125D-05  .143300183117D-02 -.177323818207D-05  .515361853027D+04
     .431840000000D+05 -.242143869400D-07  .168568548048D+01  .484287738800D-07
     .956153997800D+00  .407468750000D+03 -.477091630679D+00 -.870393398236D-08
    -.268582616115D-09  .100000000000D+01  .153300000000D+04  .000000000000D+00
     .240000000000D+01  .000000000000D+00 -.977888703346D-08  .170000000000D+02
     .360060000000D+05  .400000000000D+01
 1 09  5 24 12  0  0.0 -.890800729394D-04  .727595761418D-11  .000000000000D+00
     .115000000000D+03 -.293750000000D+01  .552880172536D-08  .268950510754D+01
    -.521540641785D-07  .340683886316D-02  .100340694189D-04  .515377037811D+04
     .432000000000D+05  .968575477600D-07 -.249607047778D+01 -.596046447754D-07
     .960869626454D+00  .187218750000D+03  .897489792007D+00 -.768532012443D-08
     .836106255753D-09  .100000000000D+01  .153300000000D+04  .000000000000D+00
     .240000000000D+01  .630000000000D+02 -.130385160446D-07  .115000000000D+03
     .360060000000D+05  .400000000000D+01
 2 09  5 24 12  0  0.0  .154722481966D-03  .682121026330D-12  .000000000000D+00
     .390000000000D+02  .351250000000D+02  .501235164171D-08  .142785471245D+00
     .179745256901D-05  .906753807794D-02  .115521252155D-04  .515365857506D+04
     .432000000000D+05  .521540641785D-07 -.407464240727D+00 -.122934579849D-06
     .941608466664D+00  .147687500000D+03  .282071705496D+01 -.809319425688D-08
    -.590024576892D-09  .100000000000D+01  .153300000000D+04  .000000000000D+00
     .240000000000D+01  .000000000000D+00 -.172294676304D-07  .390000000000D+02
     .360060000000D+05  .400000000000D+01
 3 09  5 24 12  0  0.0  .397241674364D-03  .511590769747D-11  .000000000000D+00
     .510000000000D+02 -.378125000000D+01  .596239121467D-08 -.197175456121D+00
    -.707805156708D-07  .118384468369D-01  .452436506748D-05  .515361834335D+04
     .432000000000D+05 -.260770320892D-07 -.155530654494D+01  .126659870148D-06
     .925777977043D+00  .276718750000D+03  .899910485478D+00 -.885501170392D-08
     .260725145963D-10  .100000000000D+01  .153300000000D+04  .000000000000D+00
     .240000000000D+01  .000000000000D+00 -.419095158577D-08  .510000000000D+02
     .360060000000D+05  .400000000000D+01
 4 09  5 24 12  0  0.0 -.103968195617D-03 -.155750967679D-10  .000000000000D+00
     .930000000000D+02  .453750000000D+02  .482841540860D-08  .301113304690D+01
     .226870179176D-05  .858756969683D-02  .119116157293D-04  .515374813843D+04
     .432000000000D+05 -.106170773506D-06 -.389094177986D+00 -.141561031342D-06
     .940833980277D+00  .139625000000D+03  .487874597958D+00 -.775889461768D-08
    -.625026034843D-09  .100000000000D+01  .153300000000D+04  .000000000000D+00
     .240000000000D+01  .000000000000D+00 -.605359673500D-08  .930000000000D+02
     .360060000000D+05  .400000000000D+01
 5 09  5 24 12  0  0.0 -.954717397690D-04 -.211457518162D-10  .000000000000D+00
     .180000000000D+02 -.208125000000D+02  .449518724259D-08  .271737486290D+01
    -.102818012238D-05  .966625765432D-02  .104624778032D-04  .515355979729D+04
     .432000000000D+05  .134110450745D-06 -.258562136222D+01 -.204890966415D-07
     .946275947757D+00  .169250000000D+03  .130520809918D+01 -.763924677672D-08
     .763246077977D-09  .100000000000D+01  .153300000000D+04  .000000000000D+00
     .240000000000D+01  .630000000000D+02 -.419095158577D-08  .180000000000D+02
     .360060000000D+05  .400000000000D+01
 7 09  5 24 12  0  0.0  .183167867362D-04 -.682121026330D-12  .000000000000D+00
     .320000000000D+02 -.157468750000D+03  .379980113411D-08 -.156046637404D+01
    -.819750130177D-05  .256813503802D-02  .102631747723D-04  .515367840767D+04
     .432000000000D+05 -.109896063805D-06  .274773750088D+01  .465661287308D-07
     .967670198639D+00  .185156250000D+03  .287596561622D+01 -.767317676147D-08
    -.507163982558D-10  .100000000000D+01  .153300000000D+04  .000000000000D+00
     .240000000000D+01  .000000000000D+00 -.107102096081D-07  .320000000000D+02
     .360060000000D+05  .400000000000D+01
 8 09  5 24 12  0  0.0 -.204552896321D-03 -.181898940355D-11  .000000000000D+00
     .390000000000D+02 -.167250000000D+03  .341192783478D-08 -.228837816064D+01
    -.858679413795D-05  .105735056568D-01  .108536332846D-04  .515365667152D+04
     .432000000000D+05 -.167638063431D-06  .280800578318D+01 -.391155481339D-07
     .988902252868D+00  .184250000000D+03  .299034967550D+01 -.742816655581D-08
     .153577825704D-10  .100000000000D+01  .153300000000D+04  .000000000000D+00
     .240000000000D+01  .000000000000D+00 -.372529029846D-08  .390000000000D+02
     .360060000000D+05  .400000000000D+01
 9 09  5 24 12  0  0.0  .574910081923D-04  .193267624127D-11  .000000000000D+00
     .420000000000D+02 -.171218750000D+03  .354693345830D-08 -.252666672183D+01
    -.867433845997D-05  .205485019833D-01  .848621129990D-05  .515364308357D+04
     .432000000000D+05  .229105353355D-06  .271372009855D+01 -.335276126862D-07
     .976574903453D+00  .219375000000D+03  .147502873687D+01 -.726423115581D-08
    -.978612191697D-10  .100000000000D+01  .153300000000D+04  .000000000000D+00
     .240000000000D+01  .000000000000D+00 -.558793544769D-08  .420000000000D+02
     .360060000000D+05  .400000000000D+01
10 09  5 24 12  0  0.0 -.164932571352D-04 -.568434188608D-12  .000000000000D+00
     .440000000000D+02  .169125000000D+03  .457769067919D-08  .106966670357D+01
     .908784568310D-05  .858533824794D-02  .642798841000D-05  .515361542320D+04
     .432000000000D+05 -.372529029846D-08  .676448711661D+00  .819563865662D-07
     .958591182748D+00  .253031250000D+03  .626928084723D+00 -.832820404598D-08
     .946467995620D-10  .100000000000D+01  .153300000000D+04  .000000000000D+00
     .240000000000D+01  .000000000000D+00 -.279396772385D-08  .440000000000D+02
     .360060000000D+05  .400000000000D+01
11 09  5 24 12  0  0.0 -.375742092729D-05 -.147792889038D-11  .000000000000D+00
     .550000000000D+02  .906250000000D+01  .621525889048D-08 -.174384914447D+01
     .268220901489D-06  .934406113811D-02  .951252877712D-05  .515368136787D+04
     .432000000000D+05  .167638063431D-06 -.607309958292D+00 -.465661287308D-07
     .889569127816D+00  .154375000000D+03  .697908414961D+00 -.853285542768D-08
    -.498592196938D-09  .100000000000D+01  .153300000000D+04  .000000000000D+00
     .240000000000D+01  .000000000000D+00 -.116415321827D-07  .550000000000D+02
     .360060000000D+05  .400000000000D+01
12 09  5 24 12  0  0.0 -.276710838079D-03  .545696821064D-11  .000000000000D+00
     .590000000000D+02 -.887500000000D+01  .418624580251D-08 -.153338045019D+01
    -.404193997383D-06  .335134705529D-02  .101085752249D-04  .515365182304D+04
     .432000000000D+05 -.167638063431D-07 -.248398983194D+01  .465661287308D-07
     .966987191446D+00  .190625000000D+03 -.703245418069D+00 -.765924760984D-08
     .840034990829D-09  .100000000000D+01  .153300000000D+04  .000000000000D+00
     .240000000000D+01  .000000000000D+00 -.116415321827D-07  .590000000000D+02
     .360060000000D+05  .400000000000D+01
